STARLINK-30414          
1 57859U 23141V   26068.90155405 -.00000153  00000+0  69488-5 0  9995
2 57859  53.1588 282.9100 0001128 111.6124 248.4997 15.30188631140369
LYNK TOWER 6            
1 59123U 24043AB  26068.89488777  .00011440  00000+0  40142-3 0  9996
2 59123  97.5426 204.1954 0009749 232.0253 128.0107 15.29548678111845
